{
  "type": "FeatureCollection",
  "features": [
    {
      "type": "Feature",
      "properties": {
        "norad_id": 32332,
        "name": "FENGYUN 1C DEB",
        "group": "fengyun-1c-debris",
        "lat": -53.60998242125262,
        "lon": -140.4549369155309,
        "alt_km": 765.5709732974501,
        "timestamp": "2025-12-24T03:53:29.933445+00:00",
        "meta_object_name": "FENGYUN 1C DEB",
        "meta_object_id": "1999-025CXZ",
        "meta_epoch": "2025-12-15T21:05:55.809024",
        "meta_mean_motion": 13.97153731,
        "meta_eccentricity": 0.02851681,
        "meta_inclination": 99.133,
        "meta_ra_of_asc_node": 43.9123,
        "meta_arg_of_pericenter": 304.1737,
        "meta_mean_anomaly": 53.2688,
        "meta_ephemeris_type": 0,
        "meta_classification_type": "U",
        "meta_norad_cat_id": 32332,
        "meta_element_set_no": 999,
        "meta_rev_at_epoch": 93080,
        "meta_bstar": 0.0011409516,
        "meta_mean_motion_dot": 2.204e-05,
        "meta_mean_motion_ddot": 0,
        "tle_line1": "1 32332U 99025CXZ 25349.87911816  .00002204  00000+0  11410-2 0  9998",
        "tle_line2": "2 32332  99.1330  43.9123 0285168 304.1737  53.2688 13.97153731930809"
      },
      "geometry": {
        "type": "Point",
        "coordinates": [
          -140.4549369155309,
          -53.60998242125262
        ]
      }
    },
    {
      "type": "Feature",
      "properties": {
        "norad_id": 32334,
        "name": "FENGYUN 1C DEB",
        "group": "fengyun-1c-debris",
        "lat": -71.37463078397234,
        "lon": -156.18756919027953,
        "alt_km": 846.7595861684122,
        "timestamp": "2025-12-24T03:53:29.933455+00:00",
        "meta_object_name": "FENGYUN 1C DEB",
        "meta_object_id": "1999-025CYB",
        "meta_epoch": "2025-12-23T02:41:48.278976",
        "meta_mean_motion": 14.01651144,
        "meta_eccentricity": 0.00670326,
        "meta_inclination": 99.2507,
        "meta_ra_of_asc_node": 51.6667,
        "meta_arg_of_pericenter": 252.1147,
        "meta_mean_anomaly": 107.2699,
        "meta_ephemeris_type": 0,
        "meta_classification_type": "U",
        "meta_norad_cat_id": 32334,
        "meta_element_set_no": 999,
        "meta_rev_at_epoch": 94085,
        "meta_bstar": 0.00026774771,
        "meta_mean_motion_dot": 3.67e-06,
        "meta_mean_motion_ddot": 0,
        "tle_line1": "1 32334U 99025CYB 25357.11236434  .00000367  00000+0  26775-3 0  9991",
        "tle_line2": "2 32334  99.2507  51.6667 0067032 252.1147 107.2699 14.01651144940857"
      },
      "geometry": {
        "type": "Point",
        "coordinates": [
          -156.18756919027953,
          -71.37463078397234
        ]
      }
    },
    {
      "type": "Feature",
      "properties": {
        "norad_id": 32340,
        "name": "FENGYUN 1C DEB",
        "group": "fengyun-1c-debris",
        "lat": -70.44864389233892,
        "lon": 31.639384318181797,
        "alt_km": 632.1930209789853,
        "timestamp": "2025-12-24T03:53:29.933465+00:00",
        "meta_object_name": "FENGYUN 1C DEB",
        "meta_object_id": "1999-025CYH",
        "meta_epoch": "2025-12-22T11:30:52.711200",
        "meta_mean_motion": 14.74869019,
        "meta_eccentricity": 0.00335985,
        "meta_inclination": 98.9802,
        "meta_ra_of_asc_node": 3.3329,
        "meta_arg_of_pericenter": 262.6746,
        "meta_mean_anomaly": 97.0641,
        "meta_ephemeris_type": 0,
        "meta_classification_type": "U",
        "meta_norad_cat_id": 32340,
        "meta_element_set_no": 999,
        "meta_rev_at_epoch": 97340,
        "meta_bstar": 0.0025684979,
        "meta_mean_motion_dot": 0.0001736,
        "meta_mean_motion_ddot": 0,
        "tle_line1": "1 32340U 99025CYH 25356.47977675  .00017360  00000+0  25685-2 0  9994",
        "tle_line2": "2 32340  98.9802   3.3329 0033598 262.6746  97.0641 14.74869019973400"
      },
      "geometry": {
        "type": "Point",
        "coordinates": [
          31.639384318181797,
          -70.44864389233892
        ]
      }
    },
    {
      "type": "Feature",
      "properties": {
        "norad_id": 32342,
        "name": "FENGYUN 1C DEB",
        "group": "fengyun-1c-debris",
        "lat": 11.906118192319411,
        "lon": 4.5718306450914215,
        "alt_km": 846.0600674658272,
        "timestamp": "2025-12-24T03:53:29.933477+00:00",
        "meta_object_name": "FENGYUN 1C DEB",
        "meta_object_id": "1999-025CYK",
        "meta_epoch": "2025-12-22T23:13:31.065888",
        "meta_mean_motion": 14.13402945,
        "meta_eccentricity": 0.00070001,
        "meta_inclination": 98.6699,
        "meta_ra_of_asc_node": 5.258,
        "meta_arg_of_pericenter": 320.8154,
        "meta_mean_anomaly": 97.1177,
        "meta_ephemeris_type": 0,
        "meta_classification_type": "U",
        "meta_norad_cat_id": 32342,
        "meta_element_set_no": 999,
        "meta_rev_at_epoch": 93862,
        "meta_bstar": 0.00010483867,
        "meta_mean_motion_dot": 1.54e-06,
        "meta_mean_motion_ddot": 0,
        "tle_line1": "1 32342U 99025CYK 25356.96772067  .00000154  00000+0  10484-3 0  9993",
        "tle_line2": "2 32342  98.6699   5.2580 0007000 320.8154  97.1177 14.13402945938626"
      },
      "geometry": {
        "type": "Point",
        "coordinates": [
          4.5718306450914215,
          11.906118192319411
        ]
      }
    },
    {
      "type": "Feature",
      "properties": {
        "norad_id": 32343,
        "name": "FENGYUN 1C DEB",
        "group": "fengyun-1c-debris",
        "lat": 80.8816507724049,
        "lon": -124.67489216225405,
        "alt_km": 708.7481371346794,
        "timestamp": "2025-12-24T03:53:29.933487+00:00",
        "meta_object_name": "FENGYUN 1C DEB",
        "meta_object_id": "1999-025CYL",
        "meta_epoch": "2025-12-13T05:18:56.833632",
        "meta_mean_motion": 14.19848796,
        "meta_eccentricity": 0.01521973,
        "meta_inclination": 98.6084,
        "meta_ra_of_asc_node": 333.9812,
        "meta_arg_of_pericenter": 126.2805,
        "meta_mean_anomaly": 235.2541,
        "meta_ephemeris_type": 0,
        "meta_classification_type": "U",
        "meta_norad_cat_id": 32343,
        "meta_element_set_no": 999,
        "meta_rev_at_epoch": 64720,
        "meta_bstar": 0.00041342117,
        "meta_mean_motion_dot": 9.43e-06,
        "meta_mean_motion_ddot": 0,
        "tle_line1": "1 32343U 99025CYL 25347.22149113  .00000943  00000+0  41342-3 0  9996",
        "tle_line2": "2 32343  98.6084 333.9812 0152197 126.2805 235.2541 14.19848796647208"
      },
      "geometry": {
        "type": "Point",
        "coordinates": [
          -124.67489216225405,
          80.8816507724049
        ]
      }
    },
    {
      "type": "Feature",
      "properties": {
        "norad_id": 32350,
        "name": "FENGYUN 1C DEB",
        "group": "fengyun-1c-debris",
        "lat": -80.86992523472055,
        "lon": 106.90045784190124,
        "alt_km": 538.243662372176,
        "timestamp": "2025-12-24T03:53:29.933516+00:00",
        "meta_object_name": "FENGYUN 1C DEB",
        "meta_object_id": "1999-025CYT",
        "meta_epoch": "2025-12-22T09:17:40.216992",
        "meta_mean_motion": 14.52643054,
        "meta_eccentricity": 0.02666329,
        "meta_inclination": 98.2275,
        "meta_ra_of_asc_node": 40.9619,
        "meta_arg_of_pericenter": 268.7559,
        "meta_mean_anomaly": 88.3082,
        "meta_ephemeris_type": 0,
        "meta_classification_type": "U",
        "meta_norad_cat_id": 32350,
        "meta_element_set_no": 999,
        "meta_rev_at_epoch": 97667,
        "meta_bstar": 0.00076292085,
        "meta_mean_motion_dot": 4.938e-05,
        "meta_mean_motion_ddot": 0,
        "tle_line1": "1 32350U 99025CYT 25356.38727103  .00004938  00000+0  76292-3 0  9992",
        "tle_line2": "2 32350  98.2275  40.9619 0266632 268.7559  88.3082 14.52643054976672"
      },
      "geometry": {
        "type": "Point",
        "coordinates": [
          106.90045784190124,
          -80.86992523472055
        ]
      }
    },
    {
      "type": "Feature",
      "properties": {
        "norad_id": 32352,
        "name": "FENGYUN 1C DEB",
        "group": "fengyun-1c-debris",
        "lat": -78.46448543559887,
        "lon": -32.30495843822931,
        "alt_km": 827.9054982946564,
        "timestamp": "2025-12-24T03:53:29.933527+00:00",
        "meta_object_name": "FENGYUN 1C DEB",
        "meta_object_id": "1999-025CYV",
        "meta_epoch": "2025-12-19T12:39:41.171040",
        "meta_mean_motion": 14.41429626,
        "meta_eccentricity": 0.0122359,
        "meta_inclination": 98.7786,
        "meta_ra_of_asc_node": 273.7231,
        "meta_arg_of_pericenter": 150.9024,
        "meta_mean_anomaly": 209.9056,
        "meta_ephemeris_type": 0,
        "meta_classification_type": "U",
        "meta_norad_cat_id": 32352,
        "meta_element_set_no": 999,
        "meta_rev_at_epoch": 65367,
        "meta_bstar": 0.0001377,
        "meta_mean_motion_dot": 4.38e-06,
        "meta_mean_motion_ddot": 0,
        "tle_line1": "1 32352U 99025CYV 25353.52755985  .00000438  00000+0  13770-3 0  9999",
        "tle_line2": "2 32352  98.7786 273.7231 0122359 150.9024 209.9056 14.41429626653677"
      },
      "geometry": {
        "type": "Point",
        "coordinates": [
          -32.30495843822931,
          -78.46448543559887
        ]
      }
    }
  ]
}